[{"OBJECT_NAME":"HORS 1","OBJECT_ID":"2023-091Y","EPOCH":"2026-03-09T22:53:40.941312","MEAN_MOTION":15.24891371,"ECCENTRICITY":0.00107483,"INCLINATION":97.5184,"RA_OF_ASC_NODE":132.0743,"ARG_OF_PERICENTER":84.6669,"MEAN_ANOMALY":275.5794,"EPHEMERIS_TYPE":0,"CLASSIFICATION_TYPE":"U","NORAD_CAT_ID":57188,"ELEMENT_SET_NO":999,"REV_AT_EPOCH":14918,"BSTAR":0.00046916276,"MEAN_MOTION_DOT":0.00011622,"MEAN_MOTION_DDOT":0},{"OBJECT_NAME":"MALLIGYONG-1","OBJECT_ID":"2023-179A","EPOCH":"2026-03-09T23:34:09.992640","MEAN_MOTION":15.22003697,"ECCENTRICITY":0.00093214,"INCLINATION":97.316,"RA_OF_ASC_NODE":313.2885,"ARG_OF_PERICENTER":28.0346,"MEAN_ANOMALY":332.1391,"EPHEMERIS_TYPE":0,"CLASSIFICATION_TYPE":"U","NORAD_CAT_ID":58400,"ELEMENT_SET_NO":999,"REV_AT_EPOCH":12766,"BSTAR":0.00019369443,"MEAN_MOTION_DOT":4.359e-5,"MEAN_MOTION_DDOT":0}]
